{
    "links": {
        "self": "http://www.neowsapp.com/rest/v1/neo/54054412?api_key=iIulBulltgU6a56xZRHN4H3l9WmuAYTsLGpBGhQ2"
    },
    "id": "54054412",
    "neo_reference_id": "54054412",
    "name": "(2020 RE9)",
    "designation": "2020 RE9",
    "nasa_jpl_url": "http://ssd.jpl.nasa.gov/sbdb.cgi?sstr=54054412",
    "absolute_magnitude_h": 23.934,
    "estimated_diameter": {
        "kilometers": {
            "estimated_diameter_min": 0.0434265148,
            "estimated_diameter_max": 0.0971046392
        },
        "meters": {
            "estimated_diameter_min": 43.42651482,
            "estimated_diameter_max": 97.1046391634
        },
        "miles": {
            "estimated_diameter_min": 0.0269839769,
            "estimated_diameter_max": 0.0603380067
        },
        "feet": {
            "estimated_diameter_min": 142.4754468821,
            "estimated_diameter_max": 318.584784353
        }
    },
    "is_potentially_hazardous_asteroid": false,
    "close_approach_data": [
        {
            "close_approach_date": "2020-09-22",
            "close_approach_date_full": "2020-Sep-22 01:25",
            "epoch_date_close_approach": 1600737900000,
            "relative_velocity": {
                "kilometers_per_second": "4.9850439309",
                "kilometers_per_hour": "17946.1581512376",
                "miles_per_hour": "11151.0447690287"
            },
            "miss_distance": {
                "astronomical": "0.2085752838",
                "lunar": "81.1357853982",
                "kilometers": "31202418.191125506",
                "miles": "19388283.6173077428"
            },
            "orbiting_body": "Earth"
        },
        {
            "close_approach_date": "2051-09-23",
            "close_approach_date_full": "2051-Sep-23 18:08",
            "epoch_date_close_approach": 2579105280000,
            "relative_velocity": {
                "kilometers_per_second": "7.7720980805",
                "kilometers_per_hour": "27979.5530898352",
                "miles_per_hour": "17385.4061962923"
            },
            "miss_distance": {
                "astronomical": "0.3514512068",
                "lunar": "136.7145194452",
                "kilometers": "52576351.946209516",
                "miles": "32669430.1977666808"
            },
            "orbiting_body": "Earth"
        }
    ],
    "orbital_data": {
        "orbit_id": "4",
        "orbit_determination_date": "2020-10-21 07:40:13",
        "first_observation_date": "2020-09-13",
        "last_observation_date": "2020-10-20",
        "data_arc_in_days": 37,
        "observations_used": 33,
        "orbit_uncertainty": "6",
        "minimum_orbit_intersection": ".20685",
        "jupiter_tisserand_invariant": "3.282",
        "epoch_osculation": "2459000.5",
        "eccentricity": ".5124026941745931",
        "semi_major_axis": "2.470922431769573",
        "inclination": "6.525620064878451",
        "ascending_node_longitude": "20.41477999859227",
        "orbital_period": "1418.688652352298",
        "perihelion_distance": "1.204815120634407",
        "perihelion_argument": "337.6227690177234",
        "aphelion_distance": "3.73702974290474",
        "perihelion_time": "2459111.479941930128",
        "mean_anomaly": "331.8382331256396",
        "mean_motion": ".2537554659389794",
        "equinox": "J2000",
        "orbit_class": {
            "orbit_class_type": "AMO",
            "orbit_class_description": "Near-Earth asteroid orbits similar to that of 1221 Amor",
            "orbit_class_range": "1.017 AU < q (perihelion) < 1.3 AU"
        }
    },
    "is_sentry_object": false
}